[Satellite]
VERSION=1.1
NAME=SHIELDS 1
NICKNAME=SHIELDS 1
TLE1=1 43850U 18104B   22342.28796509  .00007059  00000+0  28075-3 0  9998
TLE2=2 43850  85.0267 296.7526 0013299 356.2605   3.8537 15.25005576220981
STATUS=0
